[{"OBJECT_NAME":"STARLINK-1657","OBJECT_ID":"2020-062AF","EPOCH":"2026-03-10T00:00:02.999808","MEAN_MOTION":15.83582063,"ECCENTRICITY":0.00043426,"INCLINATION":53.0512,"RA_OF_ASC_NODE":327.5676,"ARG_OF_PERICENTER":250.0794,"MEAN_ANOMALY":145.7547,"EPHEMERIS_TYPE":0,"CLASSIFICATION_TYPE":"U","NORAD_CAT_ID":46354,"ELEMENT_SET_NO":999,"REV_AT_EPOCH":598,"BSTAR":0.0010591228,"MEAN_MOTION_DOT":0.00243389,"MEAN_MOTION_DDOT":0},{"OBJECT_NAME":"STARLINK-35873","OBJECT_ID":"2026-034L","EPOCH":"2026-03-09T20:24:49.323168","MEAN_MOTION":15.80960753,"ECCENTRICITY":0.00010681,"INCLINATION":53.1586,"RA_OF_ASC_NODE":210.4617,"ARG_OF_PERICENTER":63.3857,"MEAN_ANOMALY":296.7275,"EPHEMERIS_TYPE":0,"CLASSIFICATION_TYPE":"U","NORAD_CAT_ID":67860,"ELEMENT_SET_NO":999,"REV_AT_EPOCH":399,"BSTAR":0.0012617359,"MEAN_MOTION_DOT":0.00256915,"MEAN_MOTION_DDOT":0}]
